NORAD_CAT_ID,OBJECT_NAME,OBJECT_TYPE,EPOCH,MEAN_MOTION,ECCENTRICITY,INCLINATION,RA_OF_ASC_NODE,ARG_OF_PERICENTER,MEAN_ANOMALY,BSTAR,MEAN_MOTION_DOT,MEAN_MOTION_DDOT,TLE_LINE0,TLE_LINE1,TLE_LINE2,SEMIMAJOR_AXIS,PERIOD,APOGEE,PERIGEE,DECAYED
54056.0,STARLINK-5226,PAYLOAD,2024-07-17 07:32:22,15.08851537,0.0001216,53.2156,158.8968,89.5324,270.5807,9.3803e-05,1.206e-05,0.0,0 STARLINK-5226,1 54056U 22136F   24199.31415474  .00001206  00000-0  93803-4 0  9994,2 54056  53.2156 158.8968 0001216  89.5324 270.5807 15.08851537 96692,6917.845,95.437,540.551,538.869,0.0
54056.0,STARLINK-5226,PAYLOAD,2024-07-17 13:53:56,15.08841362,0.0001232,53.2159,157.703,82.1011,278.0121,5.3982e-05,5.71e-06,0.0,0 STARLINK-5226,1 54056U 22136F   24199.57912311  .00000571  00000-0  53982-4 0  9992,2 54056  53.2159 157.7030 0001232  82.1011 278.0121 15.08841362 96252,6917.876,95.437,540.594,538.889,0.0
54056.0,STARLINK-5226,PAYLOAD,2024-07-18 02:37:02,15.08832699,0.0001282,53.2171,155.3246,93.2135,266.9003,-4.3454e-05,-9.79e-06,0.0,0 STARLINK-5226,1 54056U 22136F   24200.10905362 -.00000979  00000-0 -43454-4 0  9999,2 54056  53.2171 155.3246 0001282  93.2135 266.9003 15.08832699 96814,6917.903,95.438,540.655,538.881,0.0
54056.0,STARLINK-5226,PAYLOAD,2024-07-18 13:44:43,15.08842523,0.0001375,53.2175,153.2465,99.6262,260.4886,4.8839e-05,4.89e-06,0.0,0 STARLINK-5226,1 54056U 22136F   24200.57272630  .00000489  00000-0  48839-4 0  9991,2 54056  53.2175 153.2465 0001375  99.6262 260.4886 15.08842523 96402,6917.873,95.437,540.689,538.786,0.0
54056.0,STARLINK-5226,PAYLOAD,2024-07-19 13:35:30,15.08842957,0.0001303,53.2174,148.7861,88.1823,271.9318,-8.3137e-06,-4.2e-06,0.0,0 STARLINK-5226,1 54056U 22136F   24201.56632899 -.00000420  00000-0 -83137-5 0  9996,2 54056  53.2174 148.7861 0001303  88.1823 271.9318 15.08842957 96551,6917.871,95.437,540.638,538.835,0.0
54056.0,STARLINK-5226,PAYLOAD,2024-07-20 05:29:21,15.08849141,0.0001105,53.2163,145.8124,103.307,256.8045,0.0001341,1.848e-05,0.0,0 STARLINK-5226,1 54056U 22136F   24202.22872311  .00001848  00000-0  13410-3 0  9993,2 54056  53.2163 145.8124 0001105 103.3070 256.8045 15.08849141 97139,6917.852,95.437,540.482,538.953,0.0
54056.0,STARLINK-5226,PAYLOAD,2024-07-20 13:26:18,15.08834907,0.0001386,53.2175,144.3297,88.3368,271.7782,2.6189e-05,1.29e-06,0.0,0 STARLINK-5226,1 54056U 22136F   24202.55993754  .00000129  00000-0  26189-4 0  9993,2 54056  53.2175 144.3297 0001386  88.3368 271.7782 15.08834907 97183,6917.896,95.438,540.72,538.802,0.0
54056.0,STARLINK-5226,PAYLOAD,2024-07-21 05:20:09,15.0884873,0.0001269,53.2166,141.3463,92.8124,267.3014,7.7322e-05,9.43e-06,0.0,0 STARLINK-5226,1 54056U 22136F   24203.22232822  .00000943  00000-0  77322-4 0  9999,2 54056  53.2166 141.3463 0001269  92.8124 267.3014 15.08848730 97284,6917.854,95.437,540.597,538.841,0.0
54056.0,STARLINK-5226,PAYLOAD,2024-07-22 05:10:56,15.0884749,0.0001438,53.2169,136.8828,78.3213,281.7941,3.0429e-05,1.96e-06,0.0,0 STARLINK-5226,1 54056U 22136F   24204.21593150  .00000196  00000-0  30429-4 0  9990,2 54056  53.2169 136.8828 0001438  78.3213 281.7941 15.08847490 97435,6917.857,95.437,540.717,538.728,0.0
54056.0,STARLINK-5226,PAYLOAD,2024-07-22 14:43:14,15.08847292,0.0001609,53.2165,135.1006,134.8757,225.2366,3.6521e-05,2.93e-06,0.0,0 STARLINK-5226,1 54056U 22136F   24204.61336684  .00000293  00000-0  36521-4 0  9998,2 54056  53.2165 135.1006 0001609 134.8757 225.2366 15.08847292 97010,6917.858,95.437,540.836,538.61,0.0
54056.0,STARLINK-5226,PAYLOAD,2024-07-22 22:40:10,15.08842751,0.0001381,53.2158,133.6138,113.0742,247.0396,9.9096e-05,1.29e-05,0.0,0 STARLINK-5226,1 54056U 22136F   24204.94457024  .00001290  00000-0  99096-4 0  9990,2 54056  53.2158 133.6138 0001381 113.0742 247.0396 15.08842751 97066,6917.872,95.437,540.692,538.782,0.0
54056.0,STARLINK-5226,PAYLOAD,2024-07-23 01:50:56,15.08853658,0.0001386,53.2164,133.0283,91.6768,268.4383,3.7623e-05,3.11e-06,0.0,0 STARLINK-5226,1 54056U 22136F   24205.07704616  .00000311  00000-0  37623-4 0  9998,2 54056  53.2164 133.0283 0001386  91.6768 268.4383 15.08853658 97085,6917.839,95.437,540.662,538.745,0.0
54056.0,STARLINK-5226,PAYLOAD,2024-07-23 22:30:58,15.08835661,0.0001939,53.2152,129.1502,132.517,227.5986,-3.0793e-07,-2.93e-06,0.0,0 STARLINK-5226,1 54056U 22136F   24205.93817774 -.00000293  00000-0 -30793-6 0  9997,2 54056  53.2152 129.1502 0001939 132.5170 227.5986 15.08835661 97212,6917.894,95.438,541.1,538.417,0.0
54056.0,STARLINK-5226,PAYLOAD,2024-07-24 01:41:44,15.08838624,0.0001143,53.2158,128.5541,112.6937,247.4176,-6.2353e-05,-1.28e-05,0.0,0 STARLINK-5226,1 54056U 22136F   24206.07065917 -.00001280  00000-0 -62353-4 0  9999,2 54056  53.2158 128.5541 0001143 112.6937 247.4176 15.08838624 97710,6917.885,95.438,540.54,538.959,0.0
54056.0,STARLINK-5226,PAYLOAD,2024-07-24 22:21:45,15.08839556,0.0001495,53.2169,124.7017,101.4989,258.6171,1.048e-05,-1.21e-06,0.0,0 STARLINK-5226,1 54056U 22136F   24206.93178126 -.00000121  00000-0  10480-4 0  9997,2 54056  53.2169 124.7017 0001495 101.4989 258.6171 15.08839556 97366,6917.882,95.438,540.781,538.713,0.0
54056.0,STARLINK-5226,PAYLOAD,2024-07-25 01:32:31,15.08842768,0.0001585,53.2171,124.1072,107.6046,252.5119,8.4943e-05,1.064e-05,0.0,0 STARLINK-5226,1 54056U 22136F   24207.06425795  .00001064  00000-0  84943-4 0  9990,2 54056  53.2171 124.1072 0001585 107.6046 252.5119 15.08842768 97865,6917.872,95.437,540.833,538.64,0.0
54056.0,STARLINK-5226,PAYLOAD,2024-07-25 19:01:46,15.0883373,0.0001594,53.2177,120.8365,116.9958,243.1197,0.00015942,2.25e-05,0.0,0 STARLINK-5226,1 54056U 22136F   24207.79290401  .00002250  00000-0  15942-3 0  9994,2 54056  53.2177 120.8365 0001594 116.9958 243.1197 15.08833730 97977,6917.9,95.438,540.867,538.662,0.0
54056.0,STARLINK-5226,PAYLOAD,2024-07-25 22:12:33,15.08834569,0.0001562,53.2177,120.2418,114.5903,245.5252,0.00015845,2.234e-05,0.0,0 STARLINK-5226,1 54056U 22136F   24207.92538318  .00002234  00000-0  15845-3 0  9995,2 54056  53.2177 120.2418 0001562 114.5903 245.5252 15.08834569 97518,6917.897,95.438,540.843,538.681,0.0
54056.0,STARLINK-5226,PAYLOAD,2024-07-26 02:58:42,15.08839931,0.0001466,53.2178,119.3501,111.0998,249.0151,0.00019332,2.79e-05,0.0,0 STARLINK-5226,1 54056U 22136F   24208.12410070  .00002790  00000-0  19332-3 0  9994,2 54056  53.2178 119.3501 0001466 111.0998 249.0151 15.08839931 97548,6917.881,95.438,540.76,538.731,0.0
54056.0,STARLINK-5226,PAYLOAD,2024-07-26 10:55:38,15.08830647,0.0001541,53.2187,117.8645,104.6475,255.4688,8.4417e-05,1.055e-05,0.0,0 STARLINK-5226,1 54056U 22136F   24208.45531108  .00001055  00000-0  84417-4 0  9996,2 54056  53.2187 117.8645 0001541 104.6475 255.4688 15.08830647 98072,6917.909,95.438,540.84,538.708,0.0
54056.0,STARLINK-5226,PAYLOAD,2024-07-27 10:46:28,15.08810569,0.000149,53.2177,113.405,103.0972,257.0187,-0.00016482,-2.908e-05,0.0,0 STARLINK-5226,1 54056U 22136F   24209.44894130 -.00002908  00000-0 -16482-3 0  9999,2 54056  53.2177 113.4050 0001490 103.0972 257.0187 15.08810569 98221,6917.97,95.439,540.866,538.805,0.0
54056.0,STARLINK-5226,PAYLOAD,2024-07-27 21:54:08,15.08845913,0.0001365,53.2182,111.3235,99.1442,260.9705,0.00019544,2.824e-05,0.0,0 STARLINK-5226,1 54056U 22136F   24209.91259430  .00002824  00000-0  19544-3 0  9996,2 54056  53.2182 111.3235 0001365  99.1442 260.9705 15.08845913 97811,6917.862,95.437,540.672,538.783,0.0
54056.0,STARLINK-5226,PAYLOAD,2024-07-28 01:04:53,15.08858271,0.0001293,53.2169,110.7262,95.6427,264.4712,0.00023467,3.451e-05,0.0,0 STARLINK-5226,1 54056U 22136F   24210.04506247  .00003451  00000-0  23467-3 0  9999,2 54056  53.2169 110.7262 0001293  95.6427 264.4712 15.08858271 98317,6917.825,95.436,540.584,538.795,0.0
54056.0,STARLINK-5226,PAYLOAD,2024-07-28 10:37:12,15.0885276,0.0001505,53.2172,108.9418,81.6627,278.4535,0.00012222,1.658e-05,0.0,0 STARLINK-5226,1 54056U 22136F   24210.44250930  .00001658  00000-0  12222-3 0  9992,2 54056  53.2172 108.9418 0001505  81.6627 278.4535 15.08852760 98377,6917.841,95.437,540.748,538.665,0.0
54056.0,STARLINK-5226,PAYLOAD,2024-07-28 21:44:54,15.08836711,1.49e-05,53.2165,106.8599,101.4252,258.6757,0.00032188,4.839e-05,0.0,0 STARLINK-5226,1 54056U 22136F   24210.90619031  .00004839  00000-0  32188-3 0  9991,2 54056  53.2165 106.8599 0000149 101.4252 258.6757 15.08836711 98446,6917.89,95.438,539.859,539.652,0.0
54056.0,STARLINK-5226,PAYLOAD,2024-07-28 23:20:18,15.08839369,0.0001382,53.2139,106.5616,87.4304,272.6846,0.00032166,4.835e-05,0.0,0 STARLINK-5226,1 54056U 22136F   24210.97243339  .00004835  00000-0  32166-3 0  9994,2 54056  53.2139 106.5616 0001382  87.4304 272.6846 15.08839369 97979,6917.882,95.438,540.703,538.791,0.0
54056.0,STARLINK-5226,PAYLOAD,2024-07-29 00:55:41,15.0886206,0.000154,53.2162,106.2659,81.076,279.0407,7.794e-05,9.53e-06,0.0,0 STARLINK-5226,1 54056U 22136F   24211.03867319  .00000953  00000-0  77940-4 0  9999,2 54056  53.2162 106.2659 0001540  81.0760 279.0407 15.08862060 98464,6917.813,95.436,540.743,538.613,0.0
54056.0,STARLINK-5226,PAYLOAD,2024-07-29 10:27:59,15.08859705,0.000149,53.2162,104.4821,80.3497,279.7664,5.9432e-05,6.58e-06,0.0,0 STARLINK-5226,1 54056U 22136F   24211.43611006  .00000658  00000-0  59432-4 0  9991,2 54056  53.2162 104.4821 0001490  80.3497 279.7664 15.08859705 98046,6917.82,95.436,540.716,538.654,0.0
54056.0,STARLINK-5226,PAYLOAD,2024-07-29 21:35:41,15.08854434,0.0001625,53.2168,102.4002,85.6592,274.4586,5.1971e-06,-2.05e-06,0.0,0 STARLINK-5226,1 54056U 22136F   24211.89979069 -.00000205  00000-0  51971-5 0  9997,2 54056  53.2168 102.4002 0001625  85.6592 274.4586 15.08854434 98594,6917.836,95.437,540.825,538.577,0.0
54056.0,STARLINK-5226,PAYLOAD,2024-07-29 23:11:04,15.08851996,0.0001338,53.2158,102.0995,96.6102,263.5043,0.00010101,1.321e-05,0.0,0 STARLINK-5226,1 54056U 22136F   24211.96602836  .00001321  00000-0  10101-3 0  9997,2 54056  53.2158 102.0995 0001338  96.6102 263.5043 15.08851996 98126,6917.844,95.437,540.634,538.783,0.0
